[
  {
    "OBJECT_NAME": "STARLINK-31440",
    "OBJECT_ID": "24036B",
    "EPOCH": "2025-11-11T06:03:26.723232",
    "MEAN_MOTION": 15.30193218,
    "ECCENTRICITY": 0.0001267,
    "INCLINATION": 53.1621,
    "RA_OF_ASC_NODE": 267.9971,
    "ARG_OF_PERICENTER": 100.5032,
    "MEAN_ANOMALY": 259.6112,
    "EPHEMERIS_TYPE": 0,
    "CLASSIFICATION_TYPE": "U",
    "NORAD_CAT_ID": 58999,
    "ELEMENT_SET_NO": 999,
    "REV_AT_EPOCH": 9638,
    "BSTAR": 7.3803e-05,
    "MEAN_MOTION_DOT": 1.827e-05,
    "MEAN_MOTION_DDOT": 0.0,
    "TLE_LINE1": "1 58999U 24036B   25315.25239263  .00001827  00000+0  73803-4 0  9995",
    "TLE_LINE2": "2 58999  53.1621 267.9971 0001267 100.5032 259.6112 15.30193218 96383",
    "COMMENT": "Grouped by shell and plane from TLE"
  },
  {
    "OBJECT_NAME": "STARLINK-31529",
    "OBJECT_ID": "24036C",
    "EPOCH": "2025-11-11T06:28:30.669888",
    "MEAN_MOTION": 15.30199509,
    "ECCENTRICITY": 0.000144,
    "INCLINATION": 53.1616,
    "RA_OF_ASC_NODE": 265.9846,
    "ARG_OF_PERICENTER": 113.5272,
    "MEAN_ANOMALY": 246.5881,
    "EPHEMERIS_TYPE": 0,
    "CLASSIFICATION_TYPE": "U",
    "NORAD_CAT_ID": 59000,
    "ELEMENT_SET_NO": 999,
    "REV_AT_EPOCH": 9714,
    "BSTAR": 8.4837e-05,
    "MEAN_MOTION_DOT": 2.154e-05,
    "MEAN_MOTION_DDOT": 0.0,
    "TLE_LINE1": "1 59000U 24036C   25315.26979942  .00002154  00000+0  84837-4 0  9998",
    "TLE_LINE2": "2 59000  53.1616 265.9846 0001440 113.5272 246.5881 15.30199509 97145",
    "COMMENT": "Grouped by shell and plane from TLE"
  },
  {
    "OBJECT_NAME": "STARLINK-31431",
    "OBJECT_ID": "24036E",
    "EPOCH": "2025-11-11T03:59:09.855456",
    "MEAN_MOTION": 15.30207917,
    "ECCENTRICITY": 0.0001478,
    "INCLINATION": 53.1584,
    "RA_OF_ASC_NODE": 268.8834,
    "ARG_OF_PERICENTER": 109.9658,
    "MEAN_ANOMALY": 250.1503,
    "EPHEMERIS_TYPE": 0,
    "CLASSIFICATION_TYPE": "U",
    "NORAD_CAT_ID": 59002,
    "ELEMENT_SET_NO": 999,
    "REV_AT_EPOCH": 9717,
    "BSTAR": 0.00027994,
    "MEAN_MOTION_DOT": 7.943e-05,
    "MEAN_MOTION_DDOT": 0.0,
    "TLE_LINE1": "1 59002U 24036E   25315.16608629  .00007943  00000+0  27994-3 0  9991",
    "TLE_LINE2": "2 59002  53.1584 268.8834 0001478 109.9658 250.1503 15.30207917 97176",
    "COMMENT": "Grouped by shell and plane from TLE"
  },
  {
    "OBJECT_NAME": "STARLINK-31435",
    "OBJECT_ID": "24036G",
    "EPOCH": "2025-11-11T04:30:55.421280",
    "MEAN_MOTION": 15.30196016,
    "ECCENTRICITY": 0.0001584,
    "INCLINATION": 53.1614,
    "RA_OF_ASC_NODE": 268.306,
    "ARG_OF_PERICENTER": 95.7552,
    "MEAN_ANOMALY": 264.363,
    "EPHEMERIS_TYPE": 0,
    "CLASSIFICATION_TYPE": "U",
    "NORAD_CAT_ID": 59004,
    "ELEMENT_SET_NO": 999,
    "REV_AT_EPOCH": 9719,
    "BSTAR": 0.0,
    "MEAN_MOTION_DOT": -2.193e-05,
    "MEAN_MOTION_DDOT": 0.0,
    "TLE_LINE1": "1 59004U 24036G   25315.18814145 -.00002193  00000+0 -61937-4 0  9997",
    "TLE_LINE2": "2 59004  53.1614 268.3060 0001584  95.7552 264.3630 15.30196016 97198",
    "COMMENT": "Grouped by shell and plane from TLE"
  },
  {
    "OBJECT_NAME": "STARLINK-31484",
    "OBJECT_ID": "24036H",
    "EPOCH": "2025-11-11T04:35:28.306176",
    "MEAN_MOTION": 15.30194764,
    "ECCENTRICITY": 0.0001211,
    "INCLINATION": 53.1611,
    "RA_OF_ASC_NODE": 268.3263,
    "ARG_OF_PERICENTER": 90.3551,
    "MEAN_ANOMALY": 269.7588,
    "EPHEMERIS_TYPE": 0,
    "CLASSIFICATION_TYPE": "U",
    "NORAD_CAT_ID": 59005,
    "ELEMENT_SET_NO": 999,
    "REV_AT_EPOCH": 9718,
    "BSTAR": 9.1919e-05,
    "MEAN_MOTION_DOT": 2.364e-05,
    "MEAN_MOTION_DDOT": 0.0,
    "TLE_LINE1": "1 59005U 24036H   25315.19129984  .00002364  00000+0  91919-4 0  9990",
    "TLE_LINE2": "2 59005  53.1611 268.3263 0001211  90.3551 269.7588 15.30194764 97186",
    "COMMENT": "Grouped by shell and plane from TLE"
  },
  {
    "OBJECT_NAME": "STARLINK-31450",
    "OBJECT_ID": "24036J",
    "EPOCH": "2025-11-11T03:12:03.332160",
    "MEAN_MOTION": 15.30199534,
    "ECCENTRICITY": 0.0001528,
    "INCLINATION": 53.1611,
    "RA_OF_ASC_NODE": 268.6752,
    "ARG_OF_PERICENTER": 75.2056,
    "MEAN_ANOMALY": 284.9114,
    "EPHEMERIS_TYPE": 0,
    "CLASSIFICATION_TYPE": "U",
    "NORAD_CAT_ID": 59006,
    "ELEMENT_SET_NO": 999,
    "REV_AT_EPOCH": 9717,
    "BSTAR": 3.2419e-05,
    "MEAN_MOTION_DOT": 6.01e-06,
    "MEAN_MOTION_DDOT": 0.0,
    "TLE_LINE1": "1 59006U 24036J   25315.13337190  .00000601  00000+0  32419-4 0  9997",
    "TLE_LINE2": "2 59006  53.1611 268.6752 0001528  75.2056 284.9114 15.30199534 97179",
    "COMMENT": "Grouped by shell and plane from TLE"
  },
  {
    "OBJECT_NAME": "STARLINK-31456",
    "OBJECT_ID": "24036K",
    "EPOCH": "2025-11-11T04:40:01.999776",
    "MEAN_MOTION": 15.30196013,
    "ECCENTRICITY": 0.0001291,
    "INCLINATION": 53.1617,
    "RA_OF_ASC_NODE": 268.3453,
    "ARG_OF_PERICENTER": 100.0492,
    "MEAN_ANOMALY": 260.0654,
    "EPHEMERIS_TYPE": 0,
    "CLASSIFICATION_TYPE": "U",
    "NORAD_CAT_ID": 59007,
    "ELEMENT_SET_NO": 999,
    "REV_AT_EPOCH": 9718,
    "BSTAR": 1.167e-05,
    "MEAN_MOTION_DOT": -1.4e-07,
    "MEAN_MOTION_DDOT": 0.0,
    "TLE_LINE1": "1 59007U 24036K   25315.19446759 -.00000014  00000+0  11670-4 0  9991",
    "TLE_LINE2": "2 59007  53.1617 268.3453 0001291 100.0492 260.0654 15.30196013 97183",
    "COMMENT": "Grouped by shell and plane from TLE"
  },
  {
    "OBJECT_NAME": "STARLINK-31460",
    "OBJECT_ID": "24036L",
    "EPOCH": "2025-11-11T06:56:38.010048",
    "MEAN_MOTION": 15.30198931,
    "ECCENTRICITY": 0.0001266,
    "INCLINATION": 53.1601,
    "RA_OF_ASC_NODE": 268.2253,
    "ARG_OF_PERICENTER": 81.4271,
    "MEAN_ANOMALY": 278.6873,
    "EPHEMERIS_TYPE": 0,
    "CLASSIFICATION_TYPE": "U",
    "NORAD_CAT_ID": 59008,
    "ELEMENT_SET_NO": 999,
    "REV_AT_EPOCH": 9719,
    "BSTAR": 2.2585e-05,
    "MEAN_MOTION_DOT": 3.1e-06,
    "MEAN_MOTION_DDOT": 0.0,
    "TLE_LINE1": "1 59008U 24036L   25315.28932882  .00000310  00000+0  22585-4 0  9994",
    "TLE_LINE2": "2 59008  53.1601 268.2253 0001266  81.4271 278.6873 15.30198931 97193",
    "COMMENT": "Grouped by shell and plane from TLE"
  },
  {
    "OBJECT_NAME": "STARLINK-31488",
    "OBJECT_ID": "24036M",
    "EPOCH": "2025-11-11T04:33:57.746880",
    "MEAN_MOTION": 15.3018809,
    "ECCENTRICITY": 0.0001399,
    "INCLINATION": 53.1617,
    "RA_OF_ASC_NODE": 268.3205,
    "ARG_OF_PERICENTER": 86.2299,
    "MEAN_ANOMALY": 273.8862,
    "EPHEMERIS_TYPE": 0,
    "CLASSIFICATION_TYPE": "U",
    "NORAD_CAT_ID": 59009,
    "ELEMENT_SET_NO": 999,
    "REV_AT_EPOCH": 9718,
    "BSTAR": 6.5239e-05,
    "MEAN_MOTION_DOT": 1.573e-05,
    "MEAN_MOTION_DDOT": 0.0,
    "TLE_LINE1": "1 59009U 24036M   25315.19025170  .00001573  00000+0  65239-4 0  9993",
    "TLE_LINE2": "2 59009  53.1617 268.3205 0001399  86.2299 273.8862 15.30188090 97188",
    "COMMENT": "Grouped by shell and plane from TLE"
  },
  {
    "OBJECT_NAME": "STARLINK-31528",
    "OBJECT_ID": "24036N",
    "EPOCH": "2025-11-11T04:18:55.075968",
    "MEAN_MOTION": 15.30195338,
    "ECCENTRICITY": 0.0001143,
    "INCLINATION": 53.161,
    "RA_OF_ASC_NODE": 268.9622,
    "ARG_OF_PERICENTER": 92.912,
    "MEAN_ANOMALY": 267.2012,
    "EPHEMERIS_TYPE": 0,
    "CLASSIFICATION_TYPE": "U",
    "NORAD_CAT_ID": 59010,
    "ELEMENT_SET_NO": 999,
    "REV_AT_EPOCH": 9717,
    "BSTAR": 8.134400000000001e-05,
    "MEAN_MOTION_DOT": 2.05e-05,
    "MEAN_MOTION_DDOT": 0.0,
    "TLE_LINE1": "1 59010U 24036N   25315.17980412  .00002050  00000+0  81344-4 0  9998",
    "TLE_LINE2": "2 59010  53.1610 268.9622 0001143  92.9120 267.2012 15.30195338 97172",
    "COMMENT": "Grouped by shell and plane from TLE"
  },
  {
    "OBJECT_NAME": "STARLINK-31491",
    "OBJECT_ID": "24036P",
    "EPOCH": "2025-11-11T04:20:26.126880",
    "MEAN_MOTION": 15.30181158,
    "ECCENTRICITY": 0.0001534,
    "INCLINATION": 53.1628,
    "RA_OF_ASC_NODE": 268.9659,
    "ARG_OF_PERICENTER": 108.7542,
    "MEAN_ANOMALY": 251.3625,
    "EPHEMERIS_TYPE": 0,
    "CLASSIFICATION_TYPE": "U",
    "NORAD_CAT_ID": 59011,
    "ELEMENT_SET_NO": 999,
    "REV_AT_EPOCH": 9717,
    "BSTAR": 0.00013825000000000003,
    "MEAN_MOTION_DOT": 3.735e-05,
    "MEAN_MOTION_DDOT": 0.0,
    "TLE_LINE1": "1 59011U 24036P   25315.18085795  .00003735  00000+0  13825-3 0  9999",
    "TLE_LINE2": "2 59011  53.1628 268.9659 0001534 108.7542 251.3625 15.30181158 97179",
    "COMMENT": "Grouped by shell and plane from TLE"
  },
  {
    "OBJECT_NAME": "STARLINK-31465",
    "OBJECT_ID": "24036Q",
    "EPOCH": "2025-11-11T05:46:53.526720",
    "MEAN_MOTION": 15.30196601,
    "ECCENTRICITY": 0.0001154,
    "INCLINATION": 53.1613,
    "RA_OF_ASC_NODE": 268.6313,
    "ARG_OF_PERICENTER": 116.9515,
    "MEAN_ANOMALY": 243.1604,
    "EPHEMERIS_TYPE": 0,
    "CLASSIFICATION_TYPE": "U",
    "NORAD_CAT_ID": 59012,
    "ELEMENT_SET_NO": 999,
    "REV_AT_EPOCH": 9718,
    "BSTAR": 6.0729999999999996e-05,
    "MEAN_MOTION_DOT": 1.44e-05,
    "MEAN_MOTION_DDOT": 0.0,
    "TLE_LINE1": "1 59012U 24036Q   25315.24089730  .00001440  00000+0  60730-4 0  9999",
    "TLE_LINE2": "2 59012  53.1613 268.6313 0001154 116.9515 243.1604 15.30196601 97183",
    "COMMENT": "Grouped by shell and plane from TLE"
  },
  {
    "OBJECT_NAME": "STARLINK-31389",
    "OBJECT_ID": "24036R",
    "EPOCH": "2025-11-11T05:51:27.036288",
    "MEAN_MOTION": 15.30206301,
    "ECCENTRICITY": 0.0001466,
    "INCLINATION": 53.1635,
    "RA_OF_ASC_NODE": 268.6477,
    "ARG_OF_PERICENTER": 113.2635,
    "MEAN_ANOMALY": 246.8521,
    "EPHEMERIS_TYPE": 0,
    "CLASSIFICATION_TYPE": "U",
    "NORAD_CAT_ID": 59013,
    "ELEMENT_SET_NO": 999,
    "REV_AT_EPOCH": 9719,
    "BSTAR": 0.00013934,
    "MEAN_MOTION_DOT": 3.77e-05,
    "MEAN_MOTION_DDOT": 0.0,
    "TLE_LINE1": "1 59013U 24036R   25315.24406292  .00003770  00000+0  13934-3 0  9997",
    "TLE_LINE2": "2 59013  53.1635 268.6477 0001466 113.2635 246.8521 15.30206301 97196",
    "COMMENT": "Grouped by shell and plane from TLE"
  }
]